0 THOR ABLESTAR DEB
1 00144U 61015AE  13283.14393358  .00000161  00000-0  19551-3 0  9470
2 00144 066.5006 306.2787 0035030 072.3723 346.0483 13.89231433641154
0 THOR ABLESTAR DEB
1 00144U 61015AE  13285.52387884  .00000142  00000-0  18039-3 0  9481
2 00144 066.5003 300.4127 0035121 070.5663 009.0003 13.89232701641488
0 THOR ABLESTAR DEB
1 00144U 61015AE  13287.54007186  .00000181  00000-0  21232-3 0  9492
2 00144 066.5003 295.4430 0035200 069.0444 012.6981 13.89233969641769
0 THOR ABLESTAR DEB
1 00144U 61015AE  13289.76610064  .00000189  00000-0  21904-3 0  9509
2 00144 066.5005 289.9561 0035307 067.2842 345.9513 13.89235330642076
0 THOR ABLESTAR DEB
1 00144U 61015AE  13291.78180764  .00000220  00000-0  24421-3 0  9517
2 00144 066.5008 284.9877 0035410 065.7376 347.2642 13.89236182642359
0 THOR ABLESTAR DEB
1 00144U 61015AE  13293.80117985  .00000254  00000-0  27156-3 0  9523
2 00144 066.5009 280.0104 0035515 064.1621 006.9408 13.89237019642632
0 THOR ABLESTAR DEB
1 00144U 61015AE  13296.03041034  .00000229  00000-0  25094-3 0  9534
2 00144 066.5008 274.5159 0035640 062.4626 356.1674 13.89238650642945
